NORAD_CAT_ID,OBJECT_NAME,OBJECT_TYPE,EPOCH,MEAN_MOTION,ECCENTRICITY,INCLINATION,RA_OF_ASC_NODE,ARG_OF_PERICENTER,MEAN_ANOMALY,BSTAR,MEAN_MOTION_DOT,MEAN_MOTION_DDOT,TLE_LINE0,TLE_LINE1,TLE_LINE2,SEMIMAJOR_AXIS,PERIOD,APOGEE,PERIGEE,DECAYED
52116.0,STARLINK-3735,PAYLOAD,2022-03-22 16:00:00,15.84111296,0.0004602,53.2172,127.1198,343.6773,66.4197,-0.0042636,-0.00888033,0.0,0 STARLINK-3735,1 52116U 22029AE  22081.66667824 -.00888033  00000-0 -42636-2 0  9993,2 52116  53.2172 127.1198 0004602 343.6773  66.4197 15.84111296  1801,6696.965,90.903,321.9120000000001,315.748,0.0
52116.0,STARLINK-3735,PAYLOAD,2022-03-23 12:00:00,15.8253105,0.0001114,53.2174,122.9343,70.0032,52.7956,-0.004535,-0.00875475,0.0,0 STARLINK-3735,1 52116U 22029AE  22082.50001157 -.00875475  00000-0 -45350-2 0  9990,2 52116  53.2174 122.9343 0001114  70.0032  52.7956 15.82531050  1939,6701.4230000000025,90.993,324.034,322.541,0.0
52116.0,STARLINK-3735,PAYLOAD,2022-03-23 14:00:01,15.82372075,0.0001113,53.2172,122.5162,75.5927,162.2167,-0.0045517,-0.00872431,0.0,0 STARLINK-3735,1 52116U 22029AE  22082.58334491 -.00872431  00000-0 -45517-2 0  9992,2 52116  53.2172 122.5162 0001113  75.5927 162.2167 15.82372075  1430,6701.871999999999,91.003,324.482,322.991,0.0
52116.0,STARLINK-3735,PAYLOAD,2022-03-23 22:00:00,15.81744695,0.0001009,53.2174,120.8429,59.2715,278.106,-0.0047097,-0.00876019,0.0,0 STARLINK-3735,1 52116U 22029AE  22082.91667824 -.00876019  00000-0 -47097-2 0  9999,2 52116  53.2174 120.8429 0001009  59.2715 278.1060 15.81744695  1481,6703.644,91.039,326.185,324.832,0.0
52116.0,STARLINK-3735,PAYLOAD,2022-03-24 04:00:00,15.81275182,0.0001097,53.2176,119.5905,64.9828,256.5729,-0.0048328999999999,-0.00879093,0.0,0 STARLINK-3735,1 52116U 22029AE  22083.16667824 -.00879093  00000-0 -48329-2 0  9991,2 52116  53.2176 119.5905 0001097  64.9828 256.5729 15.81275182  2036,6704.971,91.066,327.571,326.1,0.0
52116.0,STARLINK-3735,PAYLOAD,2022-03-24 14:00:01,15.80484588,0.0001126,53.2173,117.5068,72.4833,101.7596,-0.0049719,-0.00872408,0.0,0 STARLINK-3735,1 52116U 22029AE  22083.58334491 -.00872408  00000-0 -49719-2 0  9995,2 52116  53.2173 117.5068 0001126  72.4833 101.7596 15.80484588  1598,6707.206,91.111,329.827,328.316,0.0
52116.0,STARLINK-3735,PAYLOAD,2022-03-24 22:00:00,15.79856541,0.0001119,53.2174,115.8381,64.4473,207.0953,-0.005132,-0.00874519,0.0,0 STARLINK-3735,1 52116U 22029AE  22083.91667824 -.00874519  00000-0 -51320-2 0  9997,2 52116  53.2174 115.8381 0001119  64.4473 207.0953 15.79856541  2151,6708.984,91.148,331.599,330.098,0.0
52116.0,STARLINK-3735,PAYLOAD,2022-03-25 14:00:01,15.78598659,0.0001082,53.2171,112.5115,63.7266,40.1433,-0.0054393,-0.00874958,0.0,0 STARLINK-3735,1 52116U 22029AE  22084.58334491 -.00874958  00000-0 -54393-2 0  9992,2 52116  53.2171 112.5115 0001082  63.7266  40.1433 15.78598659  1754,6712.547,91.22,335.139,333.686,0.0
52116.0,STARLINK-3735,PAYLOAD,2022-03-25 20:00:01,15.78126166,0.000101,53.2175,111.2632,70.3337,14.880999999999998,-0.0055516,-0.00874134,0.0,0 STARLINK-3735,1 52116U 22029AE  22084.83334491 -.00874134  00000-0 -55516-2 0  9994,2 52116  53.2175 111.2632 0001010  70.3337  14.8810 15.78126166  2301,6713.887,91.247,336.43,335.074,0.0
52116.0,STARLINK-3735,PAYLOAD,2022-03-25 22:00:01,15.77968277,0.0001125,53.2173,110.8473,75.6867,123.2809,-0.0055831,-0.00872996,0.0,0 STARLINK-3735,1 52116U 22029AE  22084.91668981 -.00872996  00000-0 -55831-2 0  9991,2 52116  53.2173 110.8473 0001125  75.6867 123.2809 15.77968277  1803,6714.335,91.257,336.955,335.444,0.0
52116.0,STARLINK-3735,PAYLOAD,2022-03-26 12:00:00,15.76865874,0.0001230999999999,53.2176,107.9449,58.4713,214.9126,-0.0058526,-0.00871105,0.0,0 STARLINK-3735,1 52116U 22029AE  22085.50001157 -.00871105  00000-0 -58526-2 0  9998,2 52116  53.2176 107.9449 0001231  58.4713 214.9126 15.76865874  2408,6717.464,91.32,340.156,338.5019999999999,0.0
52116.0,STARLINK-3735,PAYLOAD,2022-03-26 14:00:01,15.76711701,0.0001016,53.2171,107.53,62.2736,324.4177,-0.0059244,-0.00875225,0.0,0 STARLINK-3735,1 52116U 22029AE  22085.58334491 -.00875225  00000-0 -59244-2 0  9991,2 52116  53.2171 107.5300 0001016  62.2736 324.4177 15.76711701  1911,6717.901999999999,91.329,340.449,339.084,0.0
52116.0,STARLINK-3735,PAYLOAD,2022-03-26 22:00:00,15.76080762,0.0001216,53.2172,105.8706,52.7861,66.6688,-0.006079,-0.0087344,0.0,0 STARLINK-3735,1 52116U 22029AE  22085.91667824 -.00873440  00000-0 -60790-2 0  9992,2 52116  53.2172 105.8706 0001216  52.7861  66.6688 15.76080762  1961,6719.695,91.366,342.3769999999999,340.742,0.0
52116.0,STARLINK-3735,PAYLOAD,2022-03-27 04:00:00,15.75610105,0.000129,53.2175,104.6295,47.9424,50.5865,-0.006222,-0.0087536,0.0,0 STARLINK-3735,1 52116U 22029AE  22086.16667824 -.00875360  00000-0 -62220-2 0  9993,2 52116  53.2175 104.6295 0001290  47.9424  50.5865 15.75610105  2517,6721.033,91.393,343.765,342.031,0.0
52116.0,STARLINK-3735,PAYLOAD,2022-03-27 14:00:01,15.74823861,0.0001035,53.2172,102.5625,74.9082,227.799,-0.0064365,-0.00874703,0.0,0 STARLINK-3735,1 52116U 22029AE  22086.58334491 -.00874703  00000-0 -64365-2 0  9992,2 52116  53.2172 102.5625 0001035  74.9082 227.7990 15.74823861  2077,6723.269,91.439,345.83,344.439,0.0
52116.0,STARLINK-3735,PAYLOAD,2022-03-27 22:00:01,15.74193941,0.0001128,53.2173,100.9077,51.3645,341.9034,-0.0066294,-0.00876292,0.0,0 STARLINK-3735,1 52116U 22029AE  22086.91668981 -.00876292  00000-0 -66294-2 0  9991,2 52116  53.2173 100.9077 0001128  51.3645 341.9034 15.74193941  2121,6725.063,91.475,347.686,346.1690000000001,0.0
52116.0,STARLINK-3735,PAYLOAD,2022-03-28 14:00:01,15.73207154,0.0001203,53.2171,97.6084,65.4913,146.5671,-3.9334e-05,-6.138e-05,0.0,0 STARLINK-3735,1 52116U 22029AE  22087.58335648 -.00006138  00000-0 -39334-4 0  9997,2 52116  53.2171  97.6084 0001203  65.4913 146.5671 15.73207154  2731,6727.875,91.533,350.5490000000001,348.93,0.0
52116.0,STARLINK-3735,PAYLOAD,2022-03-28 20:00:01,15.73243409,0.0001196,53.2167,96.3697,62.374,126.4622,-5.6117e-05,-8.502e-05,0.0,0 STARLINK-3735,1 52116U 22029AE  22087.83334491 -.00008502  00000-0 -56117-4 0  9995,2 52116  53.2167  96.3697 0001196  62.3740 126.4622 15.73243409  2777,6727.771,91.531,350.441,348.832,0.0
52116.0,STARLINK-3735,PAYLOAD,2022-03-28 22:00:00,15.73230448,0.0001179,53.2167,95.9569,64.7005,236.385,0.00012141,0.00016474,0.0,0 STARLINK-3735,1 52116U 22029AE  22087.91667824  .00016474  00000-0  12141-3 0  9996,2 52116  53.2167  95.9569 0001179  64.7005 236.3850 15.73230448  2280,6727.808000000001,91.531,350.467,348.88,0.0
52116.0,STARLINK-3735,PAYLOAD,2022-03-29 12:00:00,15.73214116,0.0001294,53.2162,93.073,49.1619,317.6213,-0.00044216,-0.00062254,0.0,0 STARLINK-3735,1 52116U 22029AE  22088.50001157 -.00062254  00000-0 -44216-3 0  9990,2 52116  53.2162  93.0730 0001294  49.1619 317.6213 15.73214116  2875,6727.855,91.532,350.591,348.849,0.0
52116.0,STARLINK-3735,PAYLOAD,2022-03-29 14:00:01,15.73229762,0.0001325,53.2163,92.6599,52.3421,66.6688,-0.00091127,-0.00126763,0.0,0 STARLINK-3735,1 52116U 22029AE  22088.58334491 -.00126763  00000-0 -91127-3 0  9997,2 52116  53.2163  92.6599 0001325  52.3421  66.6688 15.73229762  2382,6727.81,91.531,350.56699999999995,348.784,0.0
52116.0,STARLINK-3735,PAYLOAD,2022-03-29 22:00:00,15.73103054,0.0001425,53.2165,91.0084,68.6916,139.2389,0.00074442,0.00104729,0.0,0 STARLINK-3735,1 52116U 22029AE  22088.91667824  .00104729  00000-0  74442-3 0  9990,2 52116  53.2165  91.0084 0001425  68.6916 139.2389 15.73103054  2443,6728.172,91.539,350.995,349.07800000000015,0.0
52116.0,STARLINK-3735,PAYLOAD,2022-03-30 04:00:00,15.73175763,0.0001544,53.2168,89.7725,66.2615,118.3054,0.00024896,0.00034427,0.0,0 STARLINK-3735,1 52116U 22029AE  22089.16667824  .00034427  00000-0  24896-3 0  9993,2 52116  53.2168  89.7725 0001544  66.2615 118.3054 15.73175763  2986,6727.964,91.535,350.86800000000005,348.79,0.0
52116.0,STARLINK-3735,PAYLOAD,2022-03-30 14:00:01,15.73256193,0.0001489,53.2162,87.7111,60.3245,325.4454,-0.0001823,-0.00026188,0.0,0 STARLINK-3735,1 52116U 22029AE  22089.58335648 -.00026188  00000-0 -18230-3 0  9997,2 52116  53.2162  87.7111 0001489  60.3245 325.4454 15.73256193  2543,6727.735,91.53,350.602,348.598,0.0
52116.0,STARLINK-3735,PAYLOAD,2022-03-30 22:00:00,15.7319667,0.0001229,53.2163,86.0598,71.3839,43.2977,0.00031659,0.00044038,0.0,0 STARLINK-3735,1 52116U 22029AE  22089.91667824  .00044038  00000-0  31659-3 0  9990,2 52116  53.2163  86.0598 0001229  71.3839  43.2977 15.73196670  2603,6727.905,91.533,350.597,348.9430000000001,0.0
52116.0,STARLINK-3735,PAYLOAD,2022-03-31 04:00:00,15.73248048,0.0001168,53.2164,84.824,63.8113,27.5884,-0.00041202,-0.00058163,0.0,0 STARLINK-3735,1 52116U 22029AE  22090.16667824 -.00058163  00000-0 -41202-3 0  9990,2 52116  53.2164  84.8240 0001168  63.8113  27.5884 15.73248048  3146,6727.7580000000025,91.53,350.409,348.837,0.0
52116.0,STARLINK-3735,PAYLOAD,2022-03-31 12:00:00,15.73218393,0.0001246,53.2162,83.1752,57.9021,122.4606,-5.8324e-05,-8.803e-05,0.0,0 STARLINK-3735,1 52116U 22029AE  22090.50001157 -.00008803  00000-0 -58324-4 0  9999,2 52116  53.2162  83.1752 0001246  57.9021 122.4606 15.73218393  3195,6727.843000000003,91.532,350.546,348.869,0.0
52116.0,STARLINK-3735,PAYLOAD,2022-03-31 14:00:01,15.73213413,0.0001262999999999,53.2163,82.7621,61.8659,230.7359,3.9067e-06,-7.1e-07,0.0,0 STARLINK-3735,1 52116U 22029AE  22090.58334491 -.00000071  00000-0  39067-5 0  9999,2 52116  53.2163  82.7621 0001263  61.8659 230.7359 15.73213413  2708,6727.857,91.532,350.57199999999995,348.872,0.0
52116.0,STARLINK-3735,PAYLOAD,2022-03-31 20:00:01,15.73210555,0.0001245,53.2167,81.5233,72.6153,196.7132,0.00065513,0.00092381,0.0,0 STARLINK-3735,1 52116U 22029AE  22090.83334491  .00092381  00000-0  65513-3 0  9994,2 52116  53.2167  81.5233 0001245  72.6153 196.7132 15.73210555  3241,6727.865,91.533,350.5680000000001,348.892,0.0
